IRIDIUM 126             
1 42809U 17039G   25174.60822912  .00000015  00000+0 -17052-5 0  9998
2 42809  86.3987 143.5424 0002529  87.6271 272.5214 14.34217632418557
IRIDIUM 124             
1 42810U 17039H   25174.19596792  .00000312  00000+0  86658-4 0  9994
2 42810  86.4487  80.4568 0002171  77.6541 282.4902 14.43278893423337
IRIDIUM 128             
1 42811U 17039J   25174.94780816  .00000057  00000+0  13200-4 0  9999
2 42811  86.3991 174.8717 0002190  79.9501 280.1942 14.34217838418631
IRIDIUM 121             
1 42812U 17039K   25174.62725571  .00000174  00000+0  54904-4 0  9998
2 42812  86.3987 143.5596 0002197  85.8832 274.2615 14.34217612418434
IRIDIUM 133             
1 42955U 17061A   25174.70044862  .00000030  00000+0  35800-5 0  9993
2 42955  86.3994 175.0837 0002387  87.8495 272.2974 14.34217712403392
IRIDIUM 100             
1 42956U 17061B   25174.76387452 -.00000124  00000+0 -51237-4 0  9992
2 42956  86.3995 174.9844 0002354  84.6356 275.5109 14.34217257403407
IRIDIUM 122             
1 42957U 17061C   25174.73216078  .00000073  00000+0  18862-4 0  9993
2 42957  86.3993 174.9969 0002418  87.7032 272.4441 14.34218227403403
IRIDIUM 129             
1 42958U 17061D   25174.75753012  .00000049  00000+0  10355-4 0  9992
2 42958  86.3994 175.0493 0002440  98.6369 261.5104 14.34217801403422
